OBJECT_NAME,OBJECT_ID,EPOCH,MEAN_MOTION,ECCENTRICITY,INCLINATION,RA_OF_ASC_NODE,ARG_OF_PERICENTER,MEAN_ANOMALY,EPHEMERIS_TYPE,CLASSIFICATION_TYPE,NORAD_CAT_ID,ELEMENT_SET_NO,REV_AT_EPOCH,BSTAR,MEAN_MOTION_DOT,MEAN_MOTION_DDOT
PRAETORIAN SDA_603,2025-203B,2026-06-06T08:24:39.262752,13.83904757,.0008848,81.3044,20.7172,218.5644,141.4882,0,U,65566,999,3720,.10005E-3,.123E-5,0
PRAETORIAN SDA_604,2025-203C,2026-06-06T08:43:22.697760,13.83046640,.0004767,81.3060,21.1006,223.7881,136.2898,0,U,65567,999,3718,.1031E-3,.124E-5,0
PRAETORIAN SDA_605,2025-203D,2026-06-06T07:57:48.511872,13.83433566,.0007539,81.3025,20.8033,214.2802,145.7869,0,U,65568,999,3719,.59248E-4,.77E-6,0
PRAETORIAN SDA_606,2025-203E,2026-06-06T02:19:55.862112,13.83406533,.0005174,81.3062,21.2375,213.3441,146.7390,0,U,65569,999,3715,.68376E-4,.87E-6,0
PRAETORIAN SDA_608,2025-203G,2026-06-06T09:00:08.944128,13.83816060,.0005276,81.3013,20.8178,222.7322,137.3425,0,U,65571,999,3719,.71265E-4,.91E-6,0
PRAETORIAN SDA_609,2025-203H,2026-06-06T09:12:03.669984,13.84284206,.0006233,81.3058,20.7956,215.4309,144.6434,0,U,65572,999,3720,.1492E-3,.178E-5,0
PRAETORIAN SDA_610,2025-203J,2026-06-05T08:13:47.519040,13.83851043,.00059063,81.3015,21.7319,223.3033,136.7660,0,U,65573,999,3705,.3838597E-4,.54E-6,0
PRAETORIAN SDA_611,2025-203K,2026-06-06T08:26:23.958816,13.83308409,.0004903,81.3017,20.9546,227.6145,132.4596,0,U,65574,999,3718,.24877E-3,.285E-5,0
PRAETORIAN SDA_612,2025-203L,2026-06-06T08:30:54.727776,13.85037905,.0008612,81.3037,20.5646,217.9234,142.1318,0,U,65575,999,3721,.11863E-3,.146E-5,0
PRAETORIAN SDA_614,2025-203N,2026-06-06T08:12:23.552064,13.84777812,.0006486,81.3020,20.6518,215.1338,144.9392,0,U,65577,999,3721,.64563E-4,.85E-6,0
PRAETORIAN SDA_615,2025-203P,2026-06-06T07:35:15.213984,13.84435332,.0008401,81.3032,20.6328,216.5510,143.5074,0,U,65578,999,3720,.71841E-4,.92E-6,0
PRAETORIAN SDA_616,2025-203Q,2026-06-06T08:24:48.022848,13.83267366,.0004803,81.3070,21.0939,225.4707,134.6057,0,U,65579,999,3718,.10828E-3,.131E-5,0
PRAETORIAN SDA_617,2025-203R,2026-06-06T08:54:34.962336,13.83150129,.0006729,81.3045,20.9068,215.3557,144.7153,0,U,65580,999,3719,.76743E-4,.96E-6,0
PRAETORIAN SDA_618,2025-203S,2026-06-06T08:33:03.151872,13.84668861,.0009112,81.3028,20.5295,219.0117,141.0383,0,U,65581,999,3721,.1005E-3,.125E-5,0
PRAETORIAN SDA_619,2025-203T,2026-06-06T07:30:58.326048,13.83804946,.0007553,81.3052,20.8490,216.8898,143.1740,0,U,65582,999,3782,.12507E-3,.15E-5,0
PRAETORIAN SDA_620,2025-203U,2026-06-06T08:09:09.368928,13.83617744,.0007058,81.3039,20.8440,211.7503,148.3229,0,U,65583,999,3719,.12096E-3,.145E-5,0
